[{"OBJECT_NAME":"NUSAT-44 (MARIA MITCHELL)","OBJECT_ID":"2024-043AA","EPOCH":"2026-03-09T22:12:18.524160","MEAN_MOTION":15.29764305,"ECCENTRICITY":0.0007331,"INCLINATION":97.5299,"RA_OF_ASC_NODE":207.7691,"ARG_OF_PERICENTER":214.9017,"MEAN_ANOMALY":145.1743,"EPHEMERIS_TYPE":0,"CLASSIFICATION_TYPE":"U","NORAD_CAT_ID":59122,"ELEMENT_SET_NO":999,"REV_AT_EPOCH":11209,"BSTAR":0.00061063193,"MEAN_MOTION_DOT":0.00017562,"MEAN_MOTION_DDOT":0},{"OBJECT_NAME":"STARLINK-32646","OBJECT_ID":"2024-239G","EPOCH":"2026-03-09T14:25:25.999968","MEAN_MOTION":15.30189569,"ECCENTRICITY":0.0001308,"INCLINATION":53.1574,"RA_OF_ASC_NODE":181.3143,"ARG_OF_PERICENTER":66.7329,"MEAN_ANOMALY":293.3809,"EPHEMERIS_TYPE":0,"CLASSIFICATION_TYPE":"U","NORAD_CAT_ID":62307,"ELEMENT_SET_NO":999,"REV_AT_EPOCH":6955,"BSTAR":0.0014122,"MEAN_MOTION_DOT":0.00041686,"MEAN_MOTION_DDOT":0}]
